<?xml version="1.0" encoding="UTF-8"?>
<ndm xmlns:xsi="http://www.w3.org/2001/XMLSchema-instance" xsi:noNamespaceSchemaLocation="http://sanaregistry.org/r/ndmxml/ndmxml-1.0-master.xsd"><omm id="CCSDS_OMM_VERS" version="2.0"><header><COMMENT>GENERATED VIA SPACE-TRACK.ORG API</COMMENT><CREATION_DATE>2023-05-21T02:46:43</CREATION_DATE><ORIGINATOR>18 SPCS</ORIGINATOR></header><body><segment><metadata><OBJECT_NAME>LEMUR 2 DUSTINTHEWIND</OBJECT_NAME><OBJECT_ID>2019-038V</OBJECT_ID><CENTER_NAME>EARTH</CENTER_NAME><REF_FRAME>TEME</REF_FRAME><TIME_SYSTEM>UTC</TIME_SYSTEM><MEAN_ELEMENT_THEORY>SGP4</MEAN_ELEMENT_THEORY></metadata><data><meanElements><EPOCH>2023-05-20T20:30:57.216096</EPOCH><MEAN_MOTION>15.33640751</MEAN_MOTION><ECCENTRICITY>0.00189700</ECCENTRICITY><INCLINATION>97.6524</INCLINATION><RA_OF_ASC_NODE>121.1092</RA_OF_ASC_NODE><ARG_OF_PERICENTER>38.2077</ARG_OF_PERICENTER><MEAN_ANOMALY>322.0505</MEAN_ANOMALY></meanElements><tleParameters><EPHEMERIS_TYPE>0</EPHEMERIS_TYPE><CLASSIFICATION_TYPE>U</CLASSIFICATION_TYPE><NORAD_CAT_ID>44405</NORAD_CAT_ID><ELEMENT_SET_NO>999</ELEMENT_SET_NO><REV_AT_EPOCH>21444</REV_AT_EPOCH><BSTAR>0.00128830000000</BSTAR><MEAN_MOTION_DOT>0.00042240</MEAN_MOTION_DOT><MEAN_MOTION_DDOT>0.0000000000000</MEAN_MOTION_DDOT></tleParameters><userDefinedParameters><USER_DEFINED parameter="SEMIMAJOR_AXIS">6843.098</USER_DEFINED><USER_DEFINED parameter="PERIOD">93.894</USER_DEFINED><USER_DEFINED parameter="APOAPSIS">477.944</USER_DEFINED><USER_DEFINED parameter="PERIAPSIS">451.981</USER_DEFINED><USER_DEFINED parameter="OBJECT_TYPE">PAYLOAD</USER_DEFINED><USER_DEFINED parameter="RCS_SIZE">SMALL</USER_DEFINED><USER_DEFINED parameter="COUNTRY_CODE">US</USER_DEFINED><USER_DEFINED parameter="LAUNCH_DATE">2019-07-05</USER_DEFINED><USER_DEFINED parameter="SITE">VOSTO</USER_DEFINED><USER_DEFINED parameter="DECAY_DATE"/><USER_DEFINED parameter="FILE">3913175</USER_DEFINED><USER_DEFINED parameter="GP_ID">232204241</USER_DEFINED></userDefinedParameters></data></segment></body></omm></ndm>