LEMUR-2-DUSTINTHEWIND   
1 44405U 19038V   23140.85482889  .00042240  00000+0  12883-2 0  9995
2 44405  97.6524 121.1092 0018970  38.2077 322.0505 15.33640751214447
